STARLINK-36670          
1 67828U 26033H   26059.09282116  .00253646  00000+0  11668-2 0  9995
2 67828  42.9978 330.2641 0002125 261.4755  98.5875 15.82114102  3102
STARLINK-36144          
1 67829U 26033J   26059.15520866  .00295198  00000+0  13504-2 0  9999
2 67829  42.9983 329.8719 0001932 284.8997  75.1661 15.82122605  3113
STARLINK-36611          
1 67830U 26033K   26059.09132545  .00228660  00000+0  10565-2 0  9991
2 67830  42.9987 330.2521 0001981 284.5273  75.5379 15.82087626  3106
STARLINK-36661          
1 67831U 26033L   26059.15371049  .00268786  00000+0  12347-2 0  9996
2 67831  42.9987 329.8588 0001791 268.1971  91.8696 15.82103839  3115
STARLINK-36662          
1 67832U 26033M   26059.10785490 -.00172650  00000+0 -60265-3 0  9990
2 67832  42.9985 329.4803 0004747 281.3892  78.6448 15.88671596  3117
STARLINK-36659          
1 67833U 26033N   26059.15296128  .00150958  00000+0  70544-3 0  9997
2 67833  42.9985 329.8530 0001953 268.3020  91.7628 15.82062851  3111
STARLINK-36655          
1 67834U 26033P   26059.21534128  .00203428  00000+0  94225-3 0  9993
2 67834  42.9989 329.4597 0002037 267.5101  92.5538 15.82102575  3128
STARLINK-36657          
1 67835U 26033Q   26059.15146458  .00266564  00000+0  12257-2 0  9996
2 67835  42.9992 329.8409 0001682 288.6491  71.4198 15.82088294  3118
STARLINK-36650          
1 67836U 26033R   26059.08758009  .00386841  00000+0  17487-2 0  9991
2 67836  42.9986 330.2211 0002298 277.8374  82.2237 15.82138936  3105
STARLINK-36649          
1 67837U 26033S   26059.14996485  .00315475  00000+0  14403-2 0  9991
2 67837  42.9975 329.8311 0001689 261.8881  98.1799 15.82112481  3115
STARLINK-36654          
1 67838U 26033T   26059.08608085  .00210615  00000+0  97601-3 0  9993
2 67838  42.9973 330.2089 0001949 269.6138  90.4510 15.82072473  3103
STARLINK-36652          
1 67839U 26033U   26059.21159926  .00371029  00000+0  16802-2 0  9994
2 67839  42.9986 329.4285 0001195 293.0455  67.0291 15.82141262  3123
