CCSDS_OMM_VERS = 2.0
CREATION_DATE  = 
ORIGINATOR     = 

OBJECT_NAME    = STARLINK-36670
OBJECT_ID      = 2026-033H
CENTER_NAME    = EARTH
REF_FRAME      = TEME
TIME_SYSTEM    = UTC
MEAN_ELEMENT_THEORY = SGP/SGP4

EPOCH          = 2026-02-28T02:13:39.748224
MEAN_MOTION    = 15.82114102
ECCENTRICITY   = .00021257
INCLINATION    = 42.9978
RA_OF_ASC_NODE = 330.2641
ARG_OF_PERICENTER = 261.4755
MEAN_ANOMALY   = 98.5875

EPHEMERIS_TYPE = 0
CLASSIFICATION_TYPE = U
NORAD_CAT_ID   = 67828
ELEMENT_SET_NO = 999
REV_AT_EPOCH   = 310
BSTAR          = .11667718E-2
MEAN_MOTION_DOT = .253646E-2
MEAN_MOTION_DDOT = 0

CCSDS_OMM_VERS = 2.0
CREATION_DATE  = 
ORIGINATOR     = 

OBJECT_NAME    = STARLINK-36144
OBJECT_ID      = 2026-033J
CENTER_NAME    = EARTH
REF_FRAME      = TEME
TIME_SYSTEM    = UTC
MEAN_ELEMENT_THEORY = SGP/SGP4

EPOCH          = 2026-02-28T03:43:30.028224
MEAN_MOTION    = 15.82122605
ECCENTRICITY   = .00019327
INCLINATION    = 42.9983
RA_OF_ASC_NODE = 329.8719
ARG_OF_PERICENTER = 284.8997
MEAN_ANOMALY   = 75.1661

EPHEMERIS_TYPE = 0
CLASSIFICATION_TYPE = U
NORAD_CAT_ID   = 67829
ELEMENT_SET_NO = 999
REV_AT_EPOCH   = 311
BSTAR          = .13504289E-2
MEAN_MOTION_DOT = .295198E-2
MEAN_MOTION_DDOT = 0

CCSDS_OMM_VERS = 2.0
CREATION_DATE  = 
ORIGINATOR     = 

OBJECT_NAME    = STARLINK-36611
OBJECT_ID      = 2026-033K
CENTER_NAME    = EARTH
REF_FRAME      = TEME
TIME_SYSTEM    = UTC
MEAN_ELEMENT_THEORY = SGP/SGP4

EPOCH          = 2026-02-28T02:11:30.518880
MEAN_MOTION    = 15.82087626
ECCENTRICITY   = .00019814
INCLINATION    = 42.9987
RA_OF_ASC_NODE = 330.2521
ARG_OF_PERICENTER = 284.5273
MEAN_ANOMALY   = 75.5379

EPHEMERIS_TYPE = 0
CLASSIFICATION_TYPE = U
NORAD_CAT_ID   = 67830
ELEMENT_SET_NO = 999
REV_AT_EPOCH   = 310
BSTAR          = .10564541E-2
MEAN_MOTION_DOT = .22866E-2
MEAN_MOTION_DDOT = 0

CCSDS_OMM_VERS = 2.0
CREATION_DATE  = 
ORIGINATOR     = 

OBJECT_NAME    = STARLINK-36661
OBJECT_ID      = 2026-033L
CENTER_NAME    = EARTH
REF_FRAME      = TEME
TIME_SYSTEM    = UTC
MEAN_ELEMENT_THEORY = SGP/SGP4

EPOCH          = 2026-02-28T03:41:20.586336
MEAN_MOTION    = 15.82103839
ECCENTRICITY   = .00017917
INCLINATION    = 42.9987
RA_OF_ASC_NODE = 329.8588
ARG_OF_PERICENTER = 268.1971
MEAN_ANOMALY   = 91.8696

EPHEMERIS_TYPE = 0
CLASSIFICATION_TYPE = U
NORAD_CAT_ID   = 67831
ELEMENT_SET_NO = 999
REV_AT_EPOCH   = 311
BSTAR          = .12346994E-2
MEAN_MOTION_DOT = .268786E-2
MEAN_MOTION_DDOT = 0

CCSDS_OMM_VERS = 2.0
CREATION_DATE  = 
ORIGINATOR     = 

OBJECT_NAME    = STARLINK-36662
OBJECT_ID      = 2026-033M
CENTER_NAME    = EARTH
REF_FRAME      = TEME
TIME_SYSTEM    = UTC
MEAN_ELEMENT_THEORY = SGP/SGP4

EPOCH          = 2026-02-28T02:35:18.663360
MEAN_MOTION    = 15.88671596
ECCENTRICITY   = .00047476
INCLINATION    = 42.9985
RA_OF_ASC_NODE = 329.4803
ARG_OF_PERICENTER = 281.3892
MEAN_ANOMALY   = 78.6448

EPHEMERIS_TYPE = 0
CLASSIFICATION_TYPE = U
NORAD_CAT_ID   = 67832
ELEMENT_SET_NO = 999
REV_AT_EPOCH   = 311
BSTAR          = -.60265366E-3
MEAN_MOTION_DOT = -.17265E-2
MEAN_MOTION_DDOT = 0

CCSDS_OMM_VERS = 2.0
CREATION_DATE  = 
ORIGINATOR     = 

OBJECT_NAME    = STARLINK-36659
OBJECT_ID      = 2026-033N
CENTER_NAME    = EARTH
REF_FRAME      = TEME
TIME_SYSTEM    = UTC
MEAN_ELEMENT_THEORY = SGP/SGP4

EPOCH          = 2026-02-28T03:40:15.854592
MEAN_MOTION    = 15.82062851
ECCENTRICITY   = .00019538
INCLINATION    = 42.9985
RA_OF_ASC_NODE = 329.8530
ARG_OF_PERICENTER = 268.3020
MEAN_ANOMALY   = 91.7628

EPHEMERIS_TYPE = 0
CLASSIFICATION_TYPE = U
NORAD_CAT_ID   = 67833
ELEMENT_SET_NO = 999
REV_AT_EPOCH   = 311
BSTAR          = .70543993E-3
MEAN_MOTION_DOT = .150958E-2
MEAN_MOTION_DDOT = 0

CCSDS_OMM_VERS = 2.0
CREATION_DATE  = 
ORIGINATOR     = 

OBJECT_NAME    = STARLINK-36655
OBJECT_ID      = 2026-033P
CENTER_NAME    = EARTH
REF_FRAME      = TEME
TIME_SYSTEM    = UTC
MEAN_ELEMENT_THEORY = SGP/SGP4

EPOCH          = 2026-02-28T05:10:05.486592
MEAN_MOTION    = 15.82102575
ECCENTRICITY   = .00020374
INCLINATION    = 42.9989
RA_OF_ASC_NODE = 329.4597
ARG_OF_PERICENTER = 267.5101
MEAN_ANOMALY   = 92.5538

EPHEMERIS_TYPE = 0
CLASSIFICATION_TYPE = U
NORAD_CAT_ID   = 67834
ELEMENT_SET_NO = 999
REV_AT_EPOCH   = 312
BSTAR          = .94225189E-3
MEAN_MOTION_DOT = .203428E-2
MEAN_MOTION_DDOT = 0

CCSDS_OMM_VERS = 2.0
CREATION_DATE  = 
ORIGINATOR     = 

OBJECT_NAME    = STARLINK-36657
OBJECT_ID      = 2026-033Q
CENTER_NAME    = EARTH
REF_FRAME      = TEME
TIME_SYSTEM    = UTC
MEAN_ELEMENT_THEORY = SGP/SGP4

EPOCH          = 2026-02-28T03:38:06.539712
MEAN_MOTION    = 15.82088294
ECCENTRICITY   = .00016823
INCLINATION    = 42.9992
RA_OF_ASC_NODE = 329.8409
ARG_OF_PERICENTER = 288.6491
MEAN_ANOMALY   = 71.4198

EPHEMERIS_TYPE = 0
CLASSIFICATION_TYPE = U
NORAD_CAT_ID   = 67835
ELEMENT_SET_NO = 999
REV_AT_EPOCH   = 311
BSTAR          = .12257259E-2
MEAN_MOTION_DOT = .266564E-2
MEAN_MOTION_DDOT = 0

CCSDS_OMM_VERS = 2.0
CREATION_DATE  = 
ORIGINATOR     = 

OBJECT_NAME    = STARLINK-36650
OBJECT_ID      = 2026-033R
CENTER_NAME    = EARTH
REF_FRAME      = TEME
TIME_SYSTEM    = UTC
MEAN_ELEMENT_THEORY = SGP/SGP4

EPOCH          = 2026-02-28T02:06:06.919776
MEAN_MOTION    = 15.82138936
ECCENTRICITY   = .00022984
INCLINATION    = 42.9986
RA_OF_ASC_NODE = 330.2211
ARG_OF_PERICENTER = 277.8374
MEAN_ANOMALY   = 82.2237

EPHEMERIS_TYPE = 0
CLASSIFICATION_TYPE = U
NORAD_CAT_ID   = 67836
ELEMENT_SET_NO = 999
REV_AT_EPOCH   = 310
BSTAR          = .17487286E-2
MEAN_MOTION_DOT = .386841E-2
MEAN_MOTION_DDOT = 0

CCSDS_OMM_VERS = 2.0
CREATION_DATE  = 
ORIGINATOR     = 

OBJECT_NAME    = STARLINK-36649
OBJECT_ID      = 2026-033S
CENTER_NAME    = EARTH
REF_FRAME      = TEME
TIME_SYSTEM    = UTC
MEAN_ELEMENT_THEORY = SGP/SGP4

EPOCH          = 2026-02-28T03:35:56.963040
MEAN_MOTION    = 15.82112481
ECCENTRICITY   = .00016897
INCLINATION    = 42.9975
RA_OF_ASC_NODE = 329.8311
ARG_OF_PERICENTER = 261.8881
MEAN_ANOMALY   = 98.1799

EPHEMERIS_TYPE = 0
CLASSIFICATION_TYPE = U
NORAD_CAT_ID   = 67837
ELEMENT_SET_NO = 999
REV_AT_EPOCH   = 311
BSTAR          = .14402932E-2
MEAN_MOTION_DOT = .315475E-2
MEAN_MOTION_DDOT = 0

CCSDS_OMM_VERS = 2.0
CREATION_DATE  = 
ORIGINATOR     = 

OBJECT_NAME    = STARLINK-36654
OBJECT_ID      = 2026-033T
CENTER_NAME    = EARTH
REF_FRAME      = TEME
TIME_SYSTEM    = UTC
MEAN_ELEMENT_THEORY = SGP/SGP4

EPOCH          = 2026-02-28T02:03:57.385440
MEAN_MOTION    = 15.82072473
ECCENTRICITY   = .00019498
INCLINATION    = 42.9973
RA_OF_ASC_NODE = 330.2089
ARG_OF_PERICENTER = 269.6138
MEAN_ANOMALY   = 90.4510

EPHEMERIS_TYPE = 0
CLASSIFICATION_TYPE = U
NORAD_CAT_ID   = 67838
ELEMENT_SET_NO = 999
REV_AT_EPOCH   = 310
BSTAR          = .97601132E-3
MEAN_MOTION_DOT = .210615E-2
MEAN_MOTION_DDOT = 0

CCSDS_OMM_VERS = 2.0
CREATION_DATE  = 
ORIGINATOR     = 

OBJECT_NAME    = STARLINK-36652
OBJECT_ID      = 2026-033U
CENTER_NAME    = EARTH
REF_FRAME      = TEME
TIME_SYSTEM    = UTC
MEAN_ELEMENT_THEORY = SGP/SGP4

EPOCH          = 2026-02-28T05:04:42.176064
MEAN_MOTION    = 15.82141262
ECCENTRICITY   = .00011959
INCLINATION    = 42.9986
RA_OF_ASC_NODE = 329.4285
ARG_OF_PERICENTER = 293.0455
MEAN_ANOMALY   = 67.0291

EPHEMERIS_TYPE = 0
CLASSIFICATION_TYPE = U
NORAD_CAT_ID   = 67839
ELEMENT_SET_NO = 999
REV_AT_EPOCH   = 312
BSTAR          = .16802472E-2
MEAN_MOTION_DOT = .371029E-2
MEAN_MOTION_DDOT = 0

